{"type": "FeatureCollection", "features": [ {"type": "Feature", "properties": {"norad_id": 41829, "name": "FENGYUN 1C DEB", "group": "fengyun-1c-debris", "lat": 59.751213676458704, "lon": 51.283041469871506, "alt_km": 826.8045450025593, "timestamp": "2025-12-23T09:49:07.373964+00:00", "meta": {"OBJECT_NAME": "FENGYUN 1C DEB", "OBJECT_ID": "1999-025EYG", "EPOCH": "2025-12-21T03:36:43.757280", "MEAN_MOTION": 14.25173263, "ECCENTRICITY": 0.00568822, "INCLINATION": 98.7436, "RA_OF_ASC_NODE": 64.3348, "ARG_OF_PERICENTER": 195.0603, "MEAN_ANOMALY": 164.8885, "EPHEMERIS_TYPE": 0, "CLASSIFICATION_TYPE": "U", "NORAD_CAT_ID": 41829, "ELEMENT_SET_NO": 999, "REV_AT_EPOCH": 47427, "BSTAR": 0.0010101815, "MEAN_MOTION_DOT": 2.369e-05, "MEAN_MOTION_DDOT": 0}, "tle": {"line1": "1 41829U 99025EYG 25355.15050645  .00002369  00000+0  10102-2 0  9990", "line2": "2 41829  98.7436  64.3348 0056882 195.0603 164.8885 14.25173263474272"}}, "geometry": {"type": "Point", "coordinates": [51.283041469871506, 59.751213676458704]}}, {"type": "Feature", "properties": {"norad_id": 41830, "name": "FENGYUN 1C DEB", "group": "fengyun-1c-debris", "lat": -65.81105777510564, "lon": 89.44973207899602, "alt_km": 821.3237443718072, "timestamp": "2025-12-23T09:49:07.373974+00:00", "meta": {"OBJECT_NAME": "FENGYUN 1C DEB", "OBJECT_ID": "1999-025EYH", "EPOCH": "2025-12-22T03:50:08.879136", "MEAN_MOTION": 14.2651985, "ECCENTRICITY": 0.00549434, "INCLINATION": 98.7534, "RA_OF_ASC_NODE": 68.1407, "ARG_OF_PERICENTER": 190.1772, "MEAN_ANOMALY": 169.8301, "EPHEMERIS_TYPE": 0, "CLASSIFICATION_TYPE": "U", "NORAD_CAT_ID": 41830, "ELEMENT_SET_NO": 999, "REV_AT_EPOCH": 47408, "BSTAR": 0.00166186, "MEAN_MOTION_DOT": 4.027e-05, "MEAN_MOTION_DDOT": 0}, "tle": {"line1": "1 41830U 99025EYH 25356.15982499  .00004027  00000+0  16619-2 0  9996", "line2": "2 41830  98.7534  68.1407 0054943 190.1772 169.8301 14.26519850474084"}}, "geometry": {"type": "Point", "coordinates": [89.44973207899602, -65.81105777510564]}}, {"type": "Feature", "properties": {"norad_id": 41831, "name": "FENGYUN 1C DEB", "group": "fengyun-1c-debris", "lat": 44.64819624503805, "lon": 55.473225217633185, "alt_km": 839.3596128614954, "timestamp": "2025-12-23T09:49:07.373984+00:00", "meta": {"OBJECT_NAME": "FENGYUN 1C DEB", "OBJECT_ID": "1999-025EYJ", "EPOCH": "2025-12-21T22:12:23.778144", "MEAN_MOTION": 14.24626179, "ECCENTRICITY": 0.00566896, "INCLINATION": 98.7339, "RA_OF_ASC_NODE": 62.7319, "ARG_OF_PERICENTER": 195.1474, "MEAN_ANOMALY": 164.8009, "EPHEMERIS_TYPE": 0, "CLASSIFICATION_TYPE": "U", "NORAD_CAT_ID": 41831, "ELEMENT_SET_NO": 999, "REV_AT_EPOCH": 47390, "BSTAR": 0.0014496316, "MEAN_MOTION_DOT": 3.382e-05, "MEAN_MOTION_DDOT": 0}, "tle": {"line1": "1 41831U 99025EYJ 25355.92527521  .00003382  00000+0  14496-2 0  9996", "line2": "2 41831  98.7339  62.7319 0056689 195.1474 164.8009 14.24626179473904"}}, "geometry": {"type": "Point", "coordinates": [55.473225217633185, 44.64819624503805]}}, {"type": "Feature", "properties": {"norad_id": 41832, "name": "FENGYUN 1C DEB", "group": "fengyun-1c-debris", "lat": 80.81728896537955, "lon": -10.504039019979993, "alt_km": 815.5600852018415, "timestamp": "2025-12-23T09:49:07.373994+00:00", "meta": {"OBJECT_NAME": "FENGYUN 1C DEB", "OBJECT_ID": "1999-025EYK", "EPOCH": "2025-12-21T03:27:18.834336", "MEAN_MOTION": 14.24290374, "ECCENTRICITY": 0.00559407, "INCLINATION": 98.7283, "RA_OF_ASC_NODE": 59.1117, "ARG_OF_PERICENTER": 201.6325, "MEAN_ANOMALY": 158.249, "EPHEMERIS_TYPE": 0, "CLASSIFICATION_TYPE": "U", "NORAD_CAT_ID": 41832, "ELEMENT_SET_NO": 999, "REV_AT_EPOCH": 47470, "BSTAR": 0.0010838292, "MEAN_MOTION_DOT": 2.499e-05, "MEAN_MOTION_DDOT": 0}, "tle": {"line1": "1 41832U 99025EYK 25355.14396799  .00002499  00000+0  10838-2 0  9996", "line2": "2 41832  98.7283  59.1117 0055940 201.6325 158.2490 14.24290374474700"}}, "geometry": {"type": "Point", "coordinates": [-10.504039019979993, 80.81728896537955]}}, {"type": "Feature", "properties": {"norad_id": 41833, "name": "FENGYUN 1C DEB", "group": "fengyun-1c-debris", "lat": -3.7229646435796897, "lon": 67.52879150491513, "alt_km": 846.668047124861, "timestamp": "2025-12-23T09:49:07.374004+00:00", "meta": {"OBJECT_NAME": "FENGYUN 1C DEB", "OBJECT_ID": "1999-025EYL", "EPOCH": "2025-12-22T16:59:42.982368", "MEAN_MOTION": 14.25885201, "ECCENTRICITY": 0.00548992, "INCLINATION": 98.7471, "RA_OF_ASC_NODE": 66.2553, "ARG_OF_PERICENTER": 195.0208, "MEAN_ANOMALY": 164.9344, "EPHEMERIS_TYPE": 0, "CLASSIFICATION_TYPE": "U", "NORAD_CAT_ID": 41833, "ELEMENT_SET_NO": 999, "REV_AT_EPOCH": 47506, "BSTAR": 0.0016939625, "MEAN_MOTION_DOT": 4.055e-05, "MEAN_MOTION_DDOT": 0}, "tle": {"line1": "1 41833U 99025EYL 25356.70813637  .00004055  00000+0  16940-2 0  9995", "line2": "2 41833  98.7471  66.2553 0054899 195.0208 164.9344 14.25885201475063"}}, "geometry": {"type": "Point", "coordinates": [67.52879150491513, -3.7229646435796897]}}, {"type": "Feature", "properties": {"norad_id": 43213, "name": "FENGYUN 1C DEB", "group": "fengyun-1c-debris", "lat": 55.06451340239165, "lon": -105.54706574405458, "alt_km": 794.8196144666153, "timestamp": "2025-12-23T09:49:07.374014+00:00", "meta": {"OBJECT_NAME": "FENGYUN 1C DEB", "OBJECT_ID": "1999-025EYM", "EPOCH": "2025-12-18T14:33:19.611072", "MEAN_MOTION": 14.23893333, "ECCENTRICITY": 0.00552662, "INCLINATION": 98.7338, "RA_OF_ASC_NODE": 56.9703, "ARG_OF_PERICENTER": 210.4712, "MEAN_ANOMALY": 149.3252, "EPHEMERIS_TYPE": 0, "CLASSIFICATION_TYPE": "U", "NORAD_CAT_ID": 43213, "ELEMENT_SET_NO": 999, "REV_AT_EPOCH": 40456, "BSTAR": 0.0011936049, "MEAN_MOTION_DOT": 2.735e-05, "MEAN_MOTION_DDOT": 0}, "tle": {"line1": "1 43213U 99025EYM 25352.60647698  .00002735  00000+0  11936-2 0  9999", "line2": "2 43213  98.7338  56.9703 0055266 210.4712 149.3252 14.23893333404568"}}, "geometry": {"type": "Point", "coordinates": [-105.54706574405458, 55.06451340239165]}}, {"type": "Feature", "properties": {"norad_id": 43214, "name": "FENGYUN 1C DEB", "group": "fengyun-1c-debris", "lat": 58.932031648414444, "lon": 47.271444509923796, "alt_km": 834.4007992995594, "timestamp": "2025-12-23T09:49:07.374024+00:00", "meta": {"OBJECT_NAME": "FENGYUN 1C DEB", "OBJECT_ID": "1999-025EYN", "EPOCH": "2025-12-21T17:04:03.454176", "MEAN_MOTION": 14.24186618, "ECCENTRICITY": 0.00559328, "INCLINATION": 98.7347, "RA_OF_ASC_NODE": 60.3684, "ARG_OF_PERICENTER": 201.2751, "MEAN_ANOMALY": 158.6102, "EPHEMERIS_TYPE": 0, "CLASSIFICATION_TYPE": "U", "NORAD_CAT_ID": 43214, "ELEMENT_SET_NO": 999, "REV_AT_EPOCH": 40531, "BSTAR": 0.0011889765, "MEAN_MOTION_DOT": 2.741e-05, "MEAN_MOTION_DDOT": 0}, "tle": {"line1": "1 43214U 99025EYN 25355.71115109  .00002741  00000+0  11890-2 0  9998", "line2": "2 43214  98.7347  60.3684 0055932 201.2751 158.6102 14.24186618405310"}}, "geometry": {"type": "Point", "coordinates": [47.271444509923796, 58.932031648414444]}}, {"type": "Feature", "properties": {"norad_id": 43358, "name": "FENGYUN 1C DEB", "group": "fengyun-1c-debris", "lat": -5.401730474247487, "lon": -64.8822183673998, "alt_km": 839.5191450529246, "timestamp": "2025-12-23T09:49:07.374035+00:00", "meta": {"OBJECT_NAME": "FENGYUN 1C DEB", "OBJECT_ID": "1999-025EYP", "EPOCH": "2025-12-22T20:21:40.337856", "MEAN_MOTION": 13.40400419, "ECCENTRICITY": 0.03675897, "INCLINATION": 98.6873, "RA_OF_ASC_NODE": 115.4637, "ARG_OF_PERICENTER": 177.3144, "MEAN_ANOMALY": 183.0078, "EPHEMERIS_TYPE": 0, "CLASSIFICATION_TYPE": "U", "NORAD_CAT_ID": 43358, "ELEMENT_SET_NO": 999, "REV_AT_EPOCH": 53866, "BSTAR": 0.0017802434, "MEAN_MOTION_DOT": 1.414e-05, "MEAN_MOTION_DDOT": 0}, "tle": {"line1": "1 43358U 99025EYP 25356.84838354  .00001414  00000+0  17802-2 0  9991", "line2": "2 43358  98.6873 115.4637 0367589 177.3144 183.0078 13.40400419538669"}}, "geometry": {"type": "Point", "coordinates": [-64.8822183673998, -5.401730474247487]}}, {"type": "Feature", "properties": {"norad_id": 43359, "name": "FENGYUN 1C DEB", "group": "fengyun-1c-debris", "lat": -73.32981392231794, "lon": 109.8697139955607, "alt_km": 794.5923896478353, "timestamp": "2025-12-23T09:49:07.374045+00:00", "meta": {"OBJECT_NAME": "FENGYUN 1C DEB", "OBJECT_ID": "1999-025EYQ", "EPOCH": "2025-12-21T04:10:45.213888", "MEAN_MOTION": 14.23228275, "ECCENTRICITY": 0.00734161, "INCLINATION": 99.0535, "RA_OF_ASC_NODE": 75.4001, "ARG_OF_PERICENTER": 349.9886, "MEAN_ANOMALY": 9.9825, "EPHEMERIS_TYPE": 0, "CLASSIFICATION_TYPE": "U", "NORAD_CAT_ID": 43359, "ELEMENT_SET_NO": 999, "REV_AT_EPOCH": 47869, "BSTAR": 0.0013478947, "MEAN_MOTION_DOT": 3.089e-05, "MEAN_MOTION_DDOT": 0}, "tle": {"line1": "1 43359U 99025EYQ 25355.17413442  .00003089  00000+0  13479-2 0  9990", "line2": "2 43359  99.0535  75.4001 0073416 349.9886   9.9825 14.23228275478695"}}, "geometry": {"type": "Point", "coordinates": [109.8697139955607, -73.32981392231794]}}, {"type": "Feature", "properties": {"norad_id": 45526, "name": "FENGYUN 1C DEB", "group": "fengyun-1c-debris", "lat": 37.30776984161807, "lon": -103.68651001623977, "alt_km": 776.993208011786, "timestamp": "2025-12-23T09:49:07.374055+00:00", "meta": {"OBJECT_NAME": "FENGYUN 1C DEB", "OBJECT_ID": "1999-025EYR", "EPOCH": "2025-12-22T02:50:24.874080", "MEAN_MOTION": 14.26011198, "ECCENTRICITY": 0.00548098, "INCLINATION": 98.7628, "RA_OF_ASC_NODE": 68.2731, "ARG_OF_PERICENTER": 196.0387, "MEAN_ANOMALY": 163.9059, "EPHEMERIS_TYPE": 0, "CLASSIFICATION_TYPE": "U", "NORAD_CAT_ID": 45526, "ELEMENT_SET_NO": 999, "REV_AT_EPOCH": 43510, "BSTAR": 0.0017310521, "MEAN_MOTION_DOT": 4.155e-05, "MEAN_MOTION_DDOT": 0}, "tle": {"line1": "1 45526U 99025EYR 25356.11834345  .00004155  00000+0  17311-2 0  9996", "line2": "2 45526  98.7628  68.2731 0054809 196.0387 163.9059 14.26011198435100"}}, "geometry": {"type": "Point", "coordinates": [-103.68651001623977, 37.30776984161807]}}]}